TIANMU-1 07             
1 57399U 23101A   26065.57454230  .00008352  00000+0  29795-3 0  9991
2 57399  97.2728 118.5929 0004609 142.4105 217.7458 15.29118809145964
STARLINK-31225          
1 59040U 24038T   26068.24893690 -.00002392  00000+0 -77412-4 0  9990
2 59040  43.0027  25.7720 0002475 250.7045 109.3539 15.27577385114624
